CCSDS_OMM_VERS = 2.0
CREATION_DATE  = 
ORIGINATOR     = 

OBJECT_NAME    = COSMOS 1933
OBJECT_ID      = 1988-020A
CENTER_NAME    = EARTH
REF_FRAME      = TEME
TIME_SYSTEM    = UTC
MEAN_ELEMENT_THEORY = SGP/SGP4

EPOCH          = 2026-02-13T17:28:11.710848
MEAN_MOTION    = 15.17770658
ECCENTRICITY   = .0002741
INCLINATION    = 82.5115
RA_OF_ASC_NODE = 274.6204
ARG_OF_PERICENTER = 297.6876
MEAN_ANOMALY   = 62.4079

EPHEMERIS_TYPE = 0
CLASSIFICATION_TYPE = U
NORAD_CAT_ID   = 18958
ELEMENT_SET_NO = 999
REV_AT_EPOCH   = 4659
BSTAR          = .1736977E-3
MEAN_MOTION_DOT = .3537E-4
MEAN_MOTION_DDOT = 0

CCSDS_OMM_VERS = 2.0
CREATION_DATE  = 
ORIGINATOR     = 

OBJECT_NAME    = SL-3 R/B
OBJECT_ID      = 1988-032B
CENTER_NAME    = EARTH
REF_FRAME      = TEME
TIME_SYSTEM    = UTC
MEAN_ELEMENT_THEORY = SGP/SGP4

EPOCH          = 2026-02-13T18:22:58.431648
MEAN_MOTION    = 15.19598290
ECCENTRICITY   = .00248772
INCLINATION    = 97.5150
RA_OF_ASC_NODE = 28.1143
ARG_OF_PERICENTER = 321.0392
MEAN_ANOMALY   = 38.9049

EPHEMERIS_TYPE = 0
CLASSIFICATION_TYPE = U
NORAD_CAT_ID   = 19046
ELEMENT_SET_NO = 999
REV_AT_EPOCH   = 4847
BSTAR          = .28763801E-3
MEAN_MOTION_DOT = .6103E-4
MEAN_MOTION_DDOT = 0

CCSDS_OMM_VERS = 2.0
CREATION_DATE  = 
ORIGINATOR     = 

OBJECT_NAME    = SL-16 R/B
OBJECT_ID      = 1988-039B
CENTER_NAME    = EARTH
REF_FRAME      = TEME
TIME_SYSTEM    = UTC
MEAN_ELEMENT_THEORY = SGP/SGP4

EPOCH          = 2026-02-13T16:05:45.741120
MEAN_MOTION    = 14.19612368
ECCENTRICITY   = .00212696
INCLINATION    = 71.0146
RA_OF_ASC_NODE = 119.3395
ARG_OF_PERICENTER = 10.8416
MEAN_ANOMALY   = 349.3163

EPHEMERIS_TYPE = 0
CLASSIFICATION_TYPE = U
NORAD_CAT_ID   = 19120
ELEMENT_SET_NO = 999
REV_AT_EPOCH   = 95497
BSTAR          = .99932011E-4
MEAN_MOTION_DOT = .163E-5
MEAN_MOTION_DDOT = 0

CCSDS_OMM_VERS = 2.0
CREATION_DATE  = 
ORIGINATOR     = 

OBJECT_NAME    = COSMOS 1953
OBJECT_ID      = 1988-050A
CENTER_NAME    = EARTH
REF_FRAME      = TEME
TIME_SYSTEM    = UTC
MEAN_ELEMENT_THEORY = SGP/SGP4

EPOCH          = 2026-02-13T20:35:43.022976
MEAN_MOTION    = 15.28047219
ECCENTRICITY   = .0010955
INCLINATION    = 82.5091
RA_OF_ASC_NODE = 182.2002
ARG_OF_PERICENTER = 203.2059
MEAN_ANOMALY   = 156.8687

EPHEMERIS_TYPE = 0
CLASSIFICATION_TYPE = U
NORAD_CAT_ID   = 19210
ELEMENT_SET_NO = 999
REV_AT_EPOCH   = 3414
BSTAR          = .35283947E-3
MEAN_MOTION_DOT = .97E-4
MEAN_MOTION_DDOT = 0

CCSDS_OMM_VERS = 2.0
CREATION_DATE  = 
ORIGINATOR     = 

OBJECT_NAME    = SL-8 R/B
OBJECT_ID      = 1988-053B
CENTER_NAME    = EARTH
REF_FRAME      = TEME
TIME_SYSTEM    = UTC
MEAN_ELEMENT_THEORY = SGP/SGP4

EPOCH          = 2026-02-13T18:00:40.618368
MEAN_MOTION    = 14.38901137
ECCENTRICITY   = .00206422
INCLINATION    = 74.0485
RA_OF_ASC_NODE = 156.5886
ARG_OF_PERICENTER = 340.1664
MEAN_ANOMALY   = 136.0483

EPHEMERIS_TYPE = 0
CLASSIFICATION_TYPE = U
NORAD_CAT_ID   = 19257
ELEMENT_SET_NO = 999
REV_AT_EPOCH   = 97315
BSTAR          = .82915492E-4
MEAN_MOTION_DOT = .23E-5
MEAN_MOTION_DDOT = 0

CCSDS_OMM_VERS = 2.0
CREATION_DATE  = 
ORIGINATOR     = 

OBJECT_NAME    = COSMOS 1975
OBJECT_ID      = 1988-093A
CENTER_NAME    = EARTH
REF_FRAME      = TEME
TIME_SYSTEM    = UTC
MEAN_ELEMENT_THEORY = SGP/SGP4

EPOCH          = 2026-02-13T16:31:52.606848
MEAN_MOTION    = 15.27651639
ECCENTRICITY   = .00103296
INCLINATION    = 82.5223
RA_OF_ASC_NODE = 141.7642
ARG_OF_PERICENTER = 251.9835
MEAN_ANOMALY   = 108.0279

EPHEMERIS_TYPE = 0
CLASSIFICATION_TYPE = U
NORAD_CAT_ID   = 19573
ELEMENT_SET_NO = 999
REV_AT_EPOCH   = 1574
BSTAR          = .32203274E-3
MEAN_MOTION_DOT = .8747E-4
MEAN_MOTION_DDOT = 0

CCSDS_OMM_VERS = 2.0
CREATION_DATE  = 
ORIGINATOR     = 

OBJECT_NAME    = SL-14 R/B
OBJECT_ID      = 1988-093B
CENTER_NAME    = EARTH
REF_FRAME      = TEME
TIME_SYSTEM    = UTC
MEAN_ELEMENT_THEORY = SGP/SGP4

EPOCH          = 2026-02-13T13:26:58.834752
MEAN_MOTION    = 14.85628203
ECCENTRICITY   = .00221737
INCLINATION    = 82.5278
RA_OF_ASC_NODE = 64.7010
ARG_OF_PERICENTER = 116.2006
MEAN_ANOMALY   = 0.6110

EPHEMERIS_TYPE = 0
CLASSIFICATION_TYPE = U
NORAD_CAT_ID   = 19574
ELEMENT_SET_NO = 999
REV_AT_EPOCH   = 99745
BSTAR          = .5248631E-4
MEAN_MOTION_DOT = .481E-5
MEAN_MOTION_DDOT = 0

CCSDS_OMM_VERS = 2.0
CREATION_DATE  = 
ORIGINATOR     = 

OBJECT_NAME    = SL-16 R/B
OBJECT_ID      = 1988-102B
CENTER_NAME    = EARTH
REF_FRAME      = TEME
TIME_SYSTEM    = UTC
MEAN_ELEMENT_THEORY = SGP/SGP4

EPOCH          = 2026-02-13T21:20:12.431328
MEAN_MOTION    = 14.16150326
ECCENTRICITY   = .0012684
INCLINATION    = 70.9984
RA_OF_ASC_NODE = 201.5715
ARG_OF_PERICENTER = 40.2148
MEAN_ANOMALY   = 319.9911

EPHEMERIS_TYPE = 0
CLASSIFICATION_TYPE = U
NORAD_CAT_ID   = 19650
ELEMENT_SET_NO = 999
REV_AT_EPOCH   = 92352
BSTAR          = .15223248E-3
MEAN_MOTION_DOT = .254E-5
MEAN_MOTION_DDOT = 0

CCSDS_OMM_VERS = 2.0
CREATION_DATE  = 
ORIGINATOR     = 

OBJECT_NAME    = INTERCOSMOS 24
OBJECT_ID      = 1989-080A
CENTER_NAME    = EARTH
REF_FRAME      = TEME
TIME_SYSTEM    = UTC
MEAN_ELEMENT_THEORY = SGP/SGP4

EPOCH          = 2026-02-13T15:45:20.769696
MEAN_MOTION    = 12.59523417
ECCENTRICITY   = .11877056
INCLINATION    = 82.6059
RA_OF_ASC_NODE = 120.0487
ARG_OF_PERICENTER = 348.6398
MEAN_ANOMALY   = 8.9883

EPHEMERIS_TYPE = 0
CLASSIFICATION_TYPE = U
NORAD_CAT_ID   = 20261
ELEMENT_SET_NO = 999
REV_AT_EPOCH   = 66377
BSTAR          = .14479961E-3
MEAN_MOTION_DOT = .5E-5
MEAN_MOTION_DDOT = 0

CCSDS_OMM_VERS = 2.0
CREATION_DATE  = 
ORIGINATOR     = 

OBJECT_NAME    = SL-14 R/B
OBJECT_ID      = 1989-080C
CENTER_NAME    = EARTH
REF_FRAME      = TEME
TIME_SYSTEM    = UTC
MEAN_ELEMENT_THEORY = SGP/SGP4

EPOCH          = 2026-02-13T09:21:55.223136
MEAN_MOTION    = 12.50462789
ECCENTRICITY   = .12295468
INCLINATION    = 82.5950
RA_OF_ASC_NODE = 188.7839
ARG_OF_PERICENTER = 240.3085
MEAN_ANOMALY   = 107.0139

EPHEMERIS_TYPE = 0
CLASSIFICATION_TYPE = U
NORAD_CAT_ID   = 20262
ELEMENT_SET_NO = 999
REV_AT_EPOCH   = 65711
BSTAR          = .15356721E-3
MEAN_MOTION_DOT = .508E-5
MEAN_MOTION_DDOT = 0

CCSDS_OMM_VERS = 2.0
CREATION_DATE  = 
ORIGINATOR     = 

OBJECT_NAME    = DELTA 1 R/B
OBJECT_ID      = 1989-089B
CENTER_NAME    = EARTH
REF_FRAME      = TEME
TIME_SYSTEM    = UTC
MEAN_ELEMENT_THEORY = SGP/SGP4

EPOCH          = 2026-02-13T13:09:02.632032
MEAN_MOTION    = 14.50642787
ECCENTRICITY   = .00685948
INCLINATION    = 97.0723
RA_OF_ASC_NODE = 255.8234
ARG_OF_PERICENTER = 197.8476
MEAN_ANOMALY   = 162.0312

EPHEMERIS_TYPE = 0
CLASSIFICATION_TYPE = U
NORAD_CAT_ID   = 20323
ELEMENT_SET_NO = 999
REV_AT_EPOCH   = 89223
BSTAR          = .99241711E-4
MEAN_MOTION_DOT = .366E-5
MEAN_MOTION_DDOT = 0

CCSDS_OMM_VERS = 2.0
CREATION_DATE  = 
ORIGINATOR     = 

OBJECT_NAME    = ARIANE 40 R/B
OBJECT_ID      = 1990-005H
CENTER_NAME    = EARTH
REF_FRAME      = TEME
TIME_SYSTEM    = UTC
MEAN_ELEMENT_THEORY = SGP/SGP4

EPOCH          = 2026-02-13T16:47:58.657344
MEAN_MOTION    = 14.39854166
ECCENTRICITY   = .00088774
INCLINATION    = 98.3138
RA_OF_ASC_NODE = 106.0698
ARG_OF_PERICENTER = 277.0720
MEAN_ANOMALY   = 82.9459

EPHEMERIS_TYPE = 0
CLASSIFICATION_TYPE = U
NORAD_CAT_ID   = 20443
ELEMENT_SET_NO = 999
REV_AT_EPOCH   = 88935
BSTAR          = .99649826E-4
MEAN_MOTION_DOT = .271E-5
MEAN_MOTION_DDOT = 0

