COSMOS 1933             
1 18958U 88020A   26044.72791332  .00003537  00000+0  17370-3 0  9997
2 18958  82.5115 274.6204 0002741 297.6876  62.4079 15.17770658 46598
SL-3 R/B                
1 19046U 88032B   26044.76595407  .00006103  00000+0  28764-3 0  9999
2 19046  97.5150  28.1143 0024877 321.0392  38.9049 15.19598290 48471
SL-16 R/B               
1 19120U 88039B   26044.67066830  .00000163  00000+0  99932-4 0  9998
2 19120  71.0146 119.3395 0021269  10.8416 349.3163 14.19612368954979
COSMOS 1953             
1 19210U 88050A   26044.85813684  .00009700  00000+0  35284-3 0  9993
2 19210  82.5091 182.2002 0010955 203.2059 156.8687 15.28047219 34148
SL-8 R/B                
1 19257U 88053B   26044.75047012  .00000230  00000+0  82915-4 0  9993
2 19257  74.0485 156.5886 0020642 340.1664 136.0483 14.38901137973158
COSMOS 1975             
1 19573U 88093A   26044.68880332  .00008747  00000+0  32203-3 0  9995
2 19573  82.5223 141.7642 0010329 251.9835 108.0279 15.27651639 15741
SL-14 R/B               
1 19574U 88093B   26044.56040318  .00000481  00000+0  52486-4 0  9998
2 19574  82.5278  64.7010 0022173 116.2006   0.6110 14.85628203997450
SL-16 R/B               
1 19650U 88102B   26044.88903277  .00000254  00000+0  15223-3 0  9996
2 19650  70.9984 201.5715 0012684  40.2148 319.9911 14.16150326923524
INTERCOSMOS 24          
1 20261U 89080A   26044.65649039  .00000500  00000+0  14480-3 0  9998
2 20261  82.6059 120.0487 1187705 348.6398   8.9883 12.59523417663779
SL-14 R/B               
1 20262U 89080C   26044.39022249  .00000508  00000+0  15357-3 0  9990
2 20262  82.5950 188.7839 1229546 240.3085 107.0139 12.50462789657113
DELTA 1 R/B             
1 20323U 89089B   26044.54794713  .00000366  00000+0  99242-4 0  9994
2 20323  97.0723 255.8234 0068594 197.8476 162.0312 14.50642787892236
ARIANE 40 R/B           
1 20443U 90005H   26044.69998446  .00000271  00000+0  99650-4 0  9990
2 20443  98.3138 106.0698 0008877 277.0720  82.9459 14.39854166889359
